BEIDOU-3 M9 (C29)       
1 43245U 18029A   26113.71577971 -.00000041  00000+0  00000+0 0  9999
2 43245  54.2438 301.8522 0000929  82.3996 277.6087  1.86227899 54888
BEIDOU-3 M10 (C30)      
1 43246U 18029B   26113.65041406 -.00000040  00000+0  00000+0 0  9991
2 43246  54.2417 301.8823 0004859  34.5505 325.4788  1.86229005 54860
IRNSS-1I                
1 43286U 18035A   26113.96433882  .00000084  00000+0  00000+0 0  9996
2 43286  29.0520  75.0297 0018329 186.8735 352.2911  1.00274138 29532
COSMOS 2527 (756)       
1 43508U 18053A   26113.18100730  .00000026  00000+0  00000+0 0  9996
2 43508  65.5485  75.7412 0008754 248.5230 111.3649  2.13101928 61109
BEIDOU-2 IGSO-7 (C16)   
1 43539U 18057A   26113.82760630 -.00000099  00000+0  00000+0 0  9997
2 43539  55.1848 163.5332 0103271 237.5854 221.4335  1.00267626 28581
GSAT0221 (GALILEO 25)   
1 43564U 18060A   26114.09926935 -.00000088  00000+0  00000+0 0  9999
2 43564  57.1855 343.2419 0003847 321.5085  38.5036  1.70475641 48245
GSAT0222 (GALILEO 26)   
1 43565U 18060B   26115.49200276 -.00000090  00000+0  00000+0 0  9991
2 43565  57.1892 343.2075 0002413 289.5902  70.4237  1.70475419 48313
GSAT0219 (GALILEO 23)   
1 43566U 18060C   26113.95323101 -.00000088  00000+0  00000+0 0  9991
2 43566  57.1884 343.2507 0003351 340.2281  19.7984  1.70475588 48268
GSAT0220 (GALILEO 24)   
1 43567U 18060D   26114.76093408 -.00000089  00000+0  00000+0 0  9997
2 43567  57.1842 343.2275 0003644  44.9018 315.1672  1.70475503 48260
BEIDOU-3 M5 (C23)       
1 43581U 18062A   26114.94852699 -.00000011  00000+0  00000+0 0  9995
2 43581  54.0831 184.1144 0004252 289.5888  70.4232  1.86228517 52643
BEIDOU-3 M6 (C24)       
1 43582U 18062B   26113.20085652 -.00000006  00000+0  00000+0 0  9995
2 43582  54.0830 184.1632 0004888  24.7028 335.3823  1.86227706 52610
BEIDOU-3 M12 (C26)      
1 43602U 18067A   26114.75012764 -.00000010  00000+0  00000+0 0  9993
2 43602  54.1783 182.8527 0007877  33.8697 326.2399  1.86227717 52128
BEIDOU-3 M11 (C25)      
1 43603U 18067B   26113.27415517 -.00000005  00000+0  00000+0 0  9997
2 43603  54.1754 182.8665 0004476  21.7330 338.3485  1.86227214 52124
BEIDOU-3 M13 (C32)      
1 43622U 18072A   26115.37719491 -.00000029  00000+0  00000+0 0  9991
2 43622  56.5807  64.4013 0008898 317.9002  42.0054  1.86230995 51670
BEIDOU-3 M14 (C33)      
1 43623U 18072B   26114.70569242 -.00000024  00000+0  00000+0 0  9990
2 43623  56.5822  64.4176 0006921 342.3518  17.5993  1.86231012 51655
BEIDOU-3 M16 (C35)      
1 43647U 18078A   26116.47269122 -.00000058  00000+0  00000+0 0  9999
2 43647  54.1380 301.7980 0008118  38.5073 321.5472  1.86232303 51197
BEIDOU-3 M15 (C34)      
1 43648U 18078B   26114.99116133 -.00000048  00000+0  00000+0 0  9997
2 43648  54.1347 301.8504 0005200  50.0577 309.9861  1.86232067 51189
